0 COSMOS 2251 DEB
1 36369U 93036AYW 13281.28094421  .00001380  00000-0  44528-3 0  2916
2 36369 074.0442 131.4640 0030001 249.5702 110.2294 14.39872362215598
0 COSMOS 2251 DEB
1 36369U 93036AYW 13283.92112775  .00001508  00000-0  48581-3 0  2928
2 36369 074.0404 126.5945 0029583 246.3979 113.4169 14.39881709215976
0 COSMOS 2251 DEB
1 36369U 93036AYW 13285.24120922  .00001593  00000-0  51259-3 0  2939
2 36369 074.0403 124.1579 0029442 242.6271 117.1978 14.39887167216165
0 COSMOS 2251 DEB
1 36369U 93036AYW 13287.88136441  .00001723  00000-0  55358-3 0  2944
2 36369 074.0463 119.2804 0030156 236.2508 123.6290 14.39898441216541
0 COSMOS 2251 DEB
1 36369U 93036AYW 13289.20142490  .00001894  00000-0  60774-3 0  2951
2 36369 074.0407 116.8503 0028981 232.3630 127.5074 14.39905665216735
0 COSMOS 2251 DEB
1 36369U 93036AYW 13290.86886931  .00002183  00000-0  69942-3 0  2969
2 36369 074.0401 113.7679 0028166 232.6151 127.2760 14.39916531216974
0 COSMOS 2251 DEB
1 36369U 93036AYW 13292.18891413  .00002302  00000-0  73655-3 0  2977
2 36369 074.0441 111.3265 0028752 227.8629 132.0329 14.39924470217168
0 COSMOS 2251 DEB
1 36369U 93036AYW 13293.16157544  .00002481  00000-0  79323-3 0  2983
2 36369 074.0426 109.5318 0028915 224.2989 135.6241 14.39931985217307
0 COSMOS 2251 DEB
1 36369U 93036AYW 13295.17636200  .00002634  00000-0  84095-3 0  2990
2 36369 074.0449 105.8044 0029802 220.2546 139.6810 14.39944589217599
